
# Worst residual: 13.27 km
# MJD 58019.000000 (2017 Sep 23  0:00)
2009-068B = NORAD 36109 = WF0AEDA = WGS 3 rk = S509590
1 36109U 09068B   17266.49919926  .00000000  00000-0  00000-0 0    06
2 36109 021.9822 126.2901 8188924 334.2648 156.6886 01.18609208    01

# Worst residual: 12.55 km
# MJD 58020.000000 (2017 Sep 24  0:00)
2009-068B = NORAD 36109 = WF0AEDA = WGS 3 rk = S509590
1 36109U 09068B   17267.49919926  .00000000  00000-0  00000-0 0    07
2 36109 021.9960 126.1015 8188695 334.5826 223.6590 01.18610165    06

# Worst residual: 12.81 km
# MJD 58021.000000 (2017 Sep 25  0:00)
2009-068B = NORAD 36109 = WF0AEDA = WGS 3 rk = S509590
1 36109U 09068B   17268.49919926  .00000000  00000-0  00000-0 0    08
2 36109 022.0050 125.9181 8188529 334.8973 290.6285 01.18612695    06

# Worst residual: 11.45 km
# MJD 58022.000000 (2017 Sep 26  0:00)
2009-068B = NORAD 36109 = WF0AEDA = WGS 3 rk = S509590
1 36109U 09068B   17269.49919926  .00000000  00000-0  00000-0 0    09
2 36109 022.0162 125.7338 8188134 335.2073 357.6130 01.18619399    01

# Worst residual: 12.49 km
# MJD 58023.000000 (2017 Sep 27  0:00)
2009-068B = NORAD 36109 = WF0AEDA = WGS 3 rk = S509590
1 36109U 09068B   17270.49919926  .00000000  00000-0  00000-0 0    01
2 36109 022.0342 125.5443 8187889 335.5204 064.5924 01.18616231    08

# Worst residual: 11.73 km
# MJD 58024.000000 (2017 Sep 28  0:00)
2009-068B = NORAD 36109 = WF0AEDA = WGS 3 rk = S509590
1 36109U 09068B   17271.49919926  .00000000  00000-0  00000-0 0    02
2 36109 022.0453 125.3624 8187991 335.8317 131.5616 01.18610880    09

# Worst residual: 13.95 km
# MJD 58025.000000 (2017 Sep 29  0:00)
2009-068B = NORAD 36109 = WF0AEDA = WGS 3 rk = S509590
1 36109U 09068B   17272.49919926  .00000000  00000-0  00000-0 0    03
2 36109 022.0658 125.1691 8186924 336.1563 198.5255 01.18602343    07

# Worst residual: 12.92 km
# MJD 58026.000000 (2017 Sep 30  0:00)
2009-068B = NORAD 36109 = WF0AEDA = WGS 3 rk = S509590
1 36109U 09068B   17273.49919926  .00000000  00000-0  00000-0 0    04
2 36109 022.0779 124.9874 8186782 336.4691 265.4958 01.18608895    00

# Worst residual: 13.49 km
# MJD 58027.000000 (2017 Oct  1  0:00)
2009-068B = NORAD 36109 = WF0AEDA = WGS 3 rk = S509590
1 36109U 09068B   17274.49919926  .00000000  00000-0  00000-0 0    05
2 36109 022.0905 124.8044 8185799 336.7824 332.4611 01.18613452    03

# Worst residual: 11.02 km
# MJD 58028.000000 (2017 Oct  2  0:00)
2009-068B = NORAD 36109 = WF0AEDA = WGS 3 rk = S509590
1 36109U 09068B   17275.49919926  .00000000  00000-0  00000-0 0    06
2 36109 022.1020 124.6257 8185073 337.0821 039.4498 01.18619246    06

# Worst residual: 13.21 km
# MJD 58029.000000 (2017 Oct  3  0:00)
2009-068B = NORAD 36109 = WF0AEDA = WGS 3 rk = S509590
1 36109U 09068B   17276.49919926  .00000000  00000-0  00000-0 0    07
2 36109 022.1146 124.4470 8184655 337.3838 106.4282 01.18613559    03

# Worst residual: 12.16 km
# MJD 58030.000000 (2017 Oct  4  0:00)
2009-068B = NORAD 36109 = WF0AEDA = WGS 3 rk = S509590
1 36109U 09068B   17277.49919926  .00000000  00000-0  00000-0 0    08
2 36109 022.1250 124.2663 8184492 337.6918 173.4029 01.18610146    04

# Worst residual: 14.14 km
# MJD 58031.000000 (2017 Oct  5  0:00)
2009-068B = NORAD 36109 = WF0AEDA = WGS 3 rk = S509590
1 36109U 09068B   17278.49919926  .00000000  00000-0  00000-0 0    09
2 36109 022.1409 124.0814 8184237 338.0058 240.3656 01.18608190    09

# Worst residual: 13.17 km
# MJD 58032.000000 (2017 Oct  6  0:00)
2009-068B = NORAD 36109 = WF0AEDA = WGS 3 rk = S509590
1 36109U 09068B   17279.49919926  .00000000  00000-0  00000-0 0    00
2 36109 022.1515 123.9011 8184098 338.3142 307.3395 01.18615243    07

# Worst residual: 10.93 km
# MJD 58033.000000 (2017 Oct  7  0:00)
2009-068B = NORAD 36109 = WF0AEDA = WGS 3 rk = S509590
1 36109U 09068B   17280.49919926  .00000000  00000-0  00000-0 0    02
2 36109 022.1674 123.7176 8183637 338.6242 014.3075 01.18620167    06

# Worst residual: 13.45 km
# MJD 58034.000000 (2017 Oct  8  0:00)
2009-068B = NORAD 36109 = WF0AEDA = WGS 3 rk = S509590
1 36109U 09068B   17281.49919926  .00000000  00000-0  00000-0 0    03
2 36109 022.1795 123.5411 8183828 338.9248 081.2820 01.18613981    08

# Worst residual: 13.27 km
# MJD 58035.000000 (2017 Oct  9  0:00)
2009-068B = NORAD 36109 = WF0AEDA = WGS 3 rk = S509590
1 36109U 09068B   17282.49919926  .00000000  00000-0  00000-0 0    04
2 36109 022.1930 123.3612 8183548 339.2363 148.2364 01.18606572    06

# Worst residual: 13.05 km
# MJD 58036.000000 (2017 Oct 10  0:00)
2009-068B = NORAD 36109 = WF0AEDA = WGS 3 rk = S509590
1 36109U 09068B   17283.49919926  .00000000  00000-0  00000-0 0    05
2 36109 022.2055 123.1817 8182942 339.5481 215.1926 01.18603485    09

# Worst residual: 13.09 km
# MJD 58037.000000 (2017 Oct 11  0:00)
2009-068B = NORAD 36109 = WF0AEDA = WGS 3 rk = S509590
1 36109U 09068B   17284.49919926  .00000000  00000-0  00000-0 0    06
2 36109 022.2119 123.0068 8182861 339.8576 282.1457 01.18608743    00

# Worst residual: 11.95 km
# MJD 58038.000000 (2017 Oct 12  0:00)
2009-068B = NORAD 36109 = WF0AEDA = WGS 3 rk = S509590
1 36109U 09068B   17285.49919926  .00000000  00000-0  00000-0 0    07
2 36109 022.2216 122.8297 8182143 340.1622 349.1200 01.18617220    09

# Worst residual: 12.34 km
# MJD 58039.000000 (2017 Oct 13  0:00)
2009-068B = NORAD 36109 = WF0AEDA = WGS 3 rk = S509590
1 36109U 09068B   17286.49919926  .00000000  00000-0  00000-0 0    08
2 36109 022.2329 122.6531 8181822 340.4638 056.0913 01.18617098    04

# Worst residual: 12.51 km
# MJD 58040.000000 (2017 Oct 14  0:00)
2009-068B = NORAD 36109 = WF0AEDA = WGS 3 rk = S509590
1 36109U 09068B   17287.49919926  .00000000  00000-0  00000-0 0    09
2 36109 022.2412 122.4803 8181997 340.7629 123.0653 01.18609924    08

# Worst residual: 14.01 km
# MJD 58041.000000 (2017 Oct 15  0:00)
2009-068B = NORAD 36109 = WF0AEDA = WGS 3 rk = S509590
1 36109U 09068B   17288.49919926  .00000000  00000-0  00000-0 0    00
2 36109 022.2558 122.2991 8181343 341.0769 190.0202 01.18603499    04

# Worst residual: 13.46 km
# MJD 58042.000000 (2017 Oct 16  0:00)
2009-068B = NORAD 36109 = WF0AEDA = WGS 3 rk = S509590
1 36109U 09068B   17289.49919926  .00000000  00000-0  00000-0 0    01
2 36109 022.2687 122.1211 8181285 341.3862 256.9822 01.18607695    05
